[{"OBJECT_NAME":"HELIOS 1B","OBJECT_ID":"1999-064A","EPOCH":"2026-03-29T03:37:40.983456","MEAN_MOTION":14.8777361,"ECCENTRICITY":0.0001798,"INCLINATION":98.1674,"RA_OF_ASC_NODE":350.9646,"ARG_OF_PERICENTER":48.0746,"MEAN_ANOMALY":312.0622,"EPHEMERIS_TYPE":0,"CLASSIFICATION_TYPE":"U","NORAD_CAT_ID":25977,"ELEMENT_SET_NO":999,"REV_AT_EPOCH":68815,"BSTAR":0.00024054,"MEAN_MOTION_DOT":2.137e-5,"MEAN_MOTION_DDOT":0},{"OBJECT_NAME":"TERRA","OBJECT_ID":"1999-068A","EPOCH":"2026-03-29T04:00:15.432192","MEAN_MOTION":14.61034969,"ECCENTRICITY":0.0003577,"INCLINATION":97.9552,"RA_OF_ASC_NODE":140.8535,"ARG_OF_PERICENTER":110.9538,"MEAN_ANOMALY":318.4372,"EPHEMERIS_TYPE":0,"CLASSIFICATION_TYPE":"U","NORAD_CAT_ID":25994,"ELEMENT_SET_NO":999,"REV_AT_EPOCH":39792,"BSTAR":0.00010519,"MEAN_MOTION_DOT":4.72e-6,"MEAN_MOTION_DDOT":0},{"OBJECT_NAME":"SL-16 R/B","OBJECT_ID":"2000-006B","EPOCH":"2026-03-29T03:48:57.299328","MEAN_MOTION":14.15827468,"ECCENTRICITY":0.0015702,"INCLINATION":71.0022,"RA_OF_ASC_NODE":56.896,"ARG_OF_PERICENTER":159.368,"MEAN_ANOMALY":200.808,"EPHEMERIS_TYPE":0,"CLASSIFICATION_TYPE":"U","NORAD_CAT_ID":26070,"ELEMENT_SET_NO":999,"REV_AT_EPOCH":35131,"BSTAR":0.00019049,"MEAN_MOTION_DOT":3.27e-6,"MEAN_MOTION_DDOT":0},{"OBJECT_NAME":"TITAN 4B R/B","OBJECT_ID":"2000-047B","EPOCH":"2026-03-29T04:12:16.627680","MEAN_MOTION":15.09742293,"ECCENTRICITY":0.0039844,"INCLINATION":67.9914,"RA_OF_ASC_NODE":345.7122,"ARG_OF_PERICENTER":12.5623,"MEAN_ANOMALY":347.6509,"EPHEMERIS_TYPE":0,"CLASSIFICATION_TYPE":"U","NORAD_CAT_ID":26474,"ELEMENT_SET_NO":999,"REV_AT_EPOCH":39585,"BSTAR":0.0003186,"MEAN_MOTION_DOT":5.115e-5,"MEAN_MOTION_DDOT":0},{"OBJECT_NAME":"ENVISAT","OBJECT_ID":"2002-009A","EPOCH":"2026-03-29T03:22:29.820288","MEAN_MOTION":14.39043539,"ECCENTRICITY":0.0001212,"INCLINATION":98.3758,"RA_OF_ASC_NODE":41.2786,"ARG_OF_PERICENTER":81.6265,"MEAN_ANOMALY":289.7423,"EPHEMERIS_TYPE":0,"CLASSIFICATION_TYPE":"U","NORAD_CAT_ID":27386,"ELEMENT_SET_NO":999,"REV_AT_EPOCH":26197,"BSTAR":5.3123e-5,"MEAN_MOTION_DOT":1.21e-6,"MEAN_MOTION_DDOT":0},{"OBJECT_NAME":"IDEFIX & ARIANE 42P R/B","OBJECT_ID":"2002-021B","EPOCH":"2026-03-28T22:24:16.521120","MEAN_MOTION":14.31038949,"ECCENTRICITY":0.001259,"INCLINATION":98.5892,"RA_OF_ASC_NODE":26.3123,"ARG_OF_PERICENTER":127.269,"MEAN_ANOMALY":232.9643,"EPHEMERIS_TYPE":0,"CLASSIFICATION_TYPE":"U","NORAD_CAT_ID":27422,"ELEMENT_SET_NO":999,"REV_AT_EPOCH":24677,"BSTAR":0.00013012,"MEAN_MOTION_DOT":2.99e-6,"MEAN_MOTION_DDOT":0},{"OBJECT_NAME":"AQUA","OBJECT_ID":"2002-022A","EPOCH":"2026-03-29T04:41:15.252288","MEAN_MOTION":14.6202158,"ECCENTRICITY":0.0001155,"INCLINATION":98.4206,"RA_OF_ASC_NODE":55.9204,"ARG_OF_PERICENTER":117.6858,"MEAN_ANOMALY":331.7498,"EPHEMERIS_TYPE":0,"CLASSIFICATION_TYPE":"U","NORAD_CAT_ID":27424,"ELEMENT_SET_NO":999,"REV_AT_EPOCH":27158,"BSTAR":0.00025591,"MEAN_MOTION_DOT":1.234e-5,"MEAN_MOTION_DDOT":0},{"OBJECT_NAME":"CZ-4B R/B","OBJECT_ID":"2002-024C","EPOCH":"2026-03-29T04:07:03.895104","MEAN_MOTION":14.14551124,"ECCENTRICITY":0.00495,"INCLINATION":98.8797,"RA_OF_ASC_NODE":141.4765,"ARG_OF_PERICENTER":328.7107,"MEAN_ANOMALY":97.0911,"EPHEMERIS_TYPE":0,"CLASSIFICATION_TYPE":"U","NORAD_CAT_ID":27432,"ELEMENT_SET_NO":999,"REV_AT_EPOCH":23199,"BSTAR":4.8235e-5,"MEAN_MOTION_DOT":4.9e-7,"MEAN_MOTION_DDOT":0},{"OBJECT_NAME":"MIDORI II (ADEOS-II)","OBJECT_ID":"2002-056A","EPOCH":"2026-03-29T02:59:52.902240","MEAN_MOTION":14.29299469,"ECCENTRICITY":7.25e-5,"INCLINATION":98.7801,"RA_OF_ASC_NODE":46.7409,"ARG_OF_PERICENTER":20.3214,"MEAN_ANOMALY":339.7996,"EPHEMERIS_TYPE":0,"CLASSIFICATION_TYPE":"U","NORAD_CAT_ID":27597,"ELEMENT_SET_NO":999,"REV_AT_EPOCH":21307,"BSTAR":0.00014952,"MEAN_MOTION_DOT":3.35e-6,"MEAN_MOTION_DDOT":0},{"OBJECT_NAME":"H-2A R/B","OBJECT_ID":"2002-056E","EPOCH":"2026-03-29T04:02:31.342848","MEAN_MOTION":14.33773833,"ECCENTRICITY":0.0071373,"INCLINATION":98.3235,"RA_OF_ASC_NODE":47.7963,"ARG_OF_PERICENTER":103.2955,"MEAN_ANOMALY":269.4488,"EPHEMERIS_TYPE":0,"CLASSIFICATION_TYPE":"U","NORAD_CAT_ID":27601,"ELEMENT_SET_NO":999,"REV_AT_EPOCH":21690,"BSTAR":0.00014548,"MEAN_MOTION_DOT":3.75e-6,"MEAN_MOTION_DDOT":0},{"OBJECT_NAME":"CZ-4B R/B","OBJECT_ID":"2003-049C","EPOCH":"2026-03-28T23:34:28.411392","MEAN_MOTION":14.55037232,"ECCENTRICITY":0.0048286,"INCLINATION":98.6892,"RA_OF_ASC_NODE":83.6466,"ARG_OF_PERICENTER":171.4866,"MEAN_ANOMALY":188.716,"EPHEMERIS_TYPE":0,"CLASSIFICATION_TYPE":"U","NORAD_CAT_ID":28059,"ELEMENT_SET_NO":999,"REV_AT_EPOCH":18940,"BSTAR":0.00010149,"MEAN_MOTION_DOT":3.93e-6,"MEAN_MOTION_DDOT":0},{"OBJECT_NAME":"CZ-2C R/B","OBJECT_ID":"2004-012C","EPOCH":"2026-03-29T03:59:27.208896","MEAN_MOTION":15.66901026,"ECCENTRICITY":0.0013319,"INCLINATION":97.7188,"RA_OF_ASC_NODE":155.3345,"ARG_OF_PERICENTER":231.8763,"MEAN_ANOMALY":128.1297,"EPHEMERIS_TYPE":0,"CLASSIFICATION_TYPE":"U","NORAD_CAT_ID":28222,"ELEMENT_SET_NO":999,"REV_AT_EPOCH":20732,"BSTAR":0.00076759,"MEAN_MOTION_DOT":0.00082097,"MEAN_MOTION_DDOT":0},{"OBJECT_NAME":"SL-16 R/B","OBJECT_ID":"2004-021B","EPOCH":"2026-03-28T23:22:09.025248","MEAN_MOTION":14.14595002,"ECCENTRICITY":0.0004983,"INCLINATION":71.0009,"RA_OF_ASC_NODE":192.0242,"ARG_OF_PERICENTER":346.2595,"MEAN_ANOMALY":13.8391,"EPHEMERIS_TYPE":0,"CLASSIFICATION_TYPE":"U","NORAD_CAT_ID":28353,"ELEMENT_SET_NO":999,"REV_AT_EPOCH":12556,"BSTAR":0.0001294,"MEAN_MOTION_DOT":2.01e-6,"MEAN_MOTION_DDOT":0},{"OBJECT_NAME":"CZ-4B R/B","OBJECT_ID":"2004-035C","EPOCH":"2026-03-29T01:57:21.464352","MEAN_MOTION":15.29395392,"ECCENTRICITY":0.003003,"INCLINATION":97.347,"RA_OF_ASC_NODE":122.0928,"ARG_OF_PERICENTER":258.9545,"MEAN_ANOMALY":100.8317,"EPHEMERIS_TYPE":0,"CLASSIFICATION_TYPE":"U","NORAD_CAT_ID":28415,"ELEMENT_SET_NO":999,"REV_AT_EPOCH":18287,"BSTAR":0.000319,"MEAN_MOTION_DOT":9.141e-5,"MEAN_MOTION_DDOT":0},{"OBJECT_NAME":"CZ-2C R/B","OBJECT_ID":"2004-046B","EPOCH":"2026-03-29T04:31:53.896800","MEAN_MOTION":14.26999128,"ECCENTRICITY":0.0140601,"INCLINATION":98.1977,"RA_OF_ASC_NODE":1.9579,"ARG_OF_PERICENTER":97.151,"MEAN_ANOMALY":264.5681,"EPHEMERIS_TYPE":0,"CLASSIFICATION_TYPE":"U","NORAD_CAT_ID":28480,"ELEMENT_SET_NO":999,"REV_AT_EPOCH":11128,"BSTAR":8.1219e-5,"MEAN_MOTION_DOT":1.8e-6,"MEAN_MOTION_DDOT":0},{"OBJECT_NAME":"ARIANE 5 R/B","OBJECT_ID":"2004-049H","EPOCH":"2026-03-29T00:49:42.593664","MEAN_MOTION":14.8530033,"ECCENTRICITY":0.0082916,"INCLINATION":98.2657,"RA_OF_ASC_NODE":257.2197,"ARG_OF_PERICENTER":288.6587,"MEAN_ANOMALY":70.5638,"EPHEMERIS_TYPE":0,"CLASSIFICATION_TYPE":"U","NORAD_CAT_ID":28499,"ELEMENT_SET_NO":999,"REV_AT_EPOCH":14866,"BSTAR":0.00010886,"MEAN_MOTION_DOT":9.28e-6,"MEAN_MOTION_DDOT":0},{"OBJECT_NAME":"CZ-2D R/B","OBJECT_ID":"2005-024B","EPOCH":"2026-03-29T00:06:22.129056","MEAN_MOTION":15.61901771,"ECCENTRICITY":0.0002337,"INCLINATION":97.3579,"RA_OF_ASC_NODE":103.8832,"ARG_OF_PERICENTER":337.3264,"MEAN_ANOMALY":22.789,"EPHEMERIS_TYPE":0,"CLASSIFICATION_TYPE":"U","NORAD_CAT_ID":28738,"ELEMENT_SET_NO":999,"REV_AT_EPOCH":14279,"BSTAR":0.00058859,"MEAN_MOTION_DOT":0.00051256,"MEAN_MOTION_DDOT":0}]
