HELIOS 1B               
1 25977U 99064A   26088.15116879  .00002137  00000+0  24054-3 0  9990
2 25977  98.1674 350.9646 0001798  48.0746 312.0622 14.87773610688152
TERRA                   
1 25994U 99068A   26088.16684528  .00000472  00000+0  10519-3 0  9996
2 25994  97.9552 140.8535 0003577 110.9538 318.4372 14.61034969397924
SL-16 R/B               
1 26070U 00006B   26088.15899652  .00000327  00000+0  19049-3 0  9997
2 26070  71.0022  56.8960 0015702 159.3680 200.8080 14.15827468351317
TITAN 4B R/B            
1 26474U 00047B   26088.17519245  .00005115  00000+0  31860-3 0  9994
2 26474  67.9914 345.7122 0039844  12.5623 347.6509 15.09742293395858
ENVISAT                 
1 27386U 02009A   26088.14062292  .00000121  00000+0  53123-4 0  9998
2 27386  98.3758  41.2786 0001212  81.6265 289.7423 14.39043539261971
IDEFIX & ARIANE 42P R/B 
1 27422U 02021B   26087.93352455  .00000299  00000+0  13012-3 0  9990
2 27422  98.5892  26.3123 0012590 127.2690 232.9643 14.31038949246778
AQUA                    
1 27424U 02022A   26088.19531542  .00001234  00000+0  25591-3 0  9993
2 27424  98.4206  55.9204 0001155 117.6858 331.7498 14.62021580271580
CZ-4B R/B               
1 27432U 02024C   26088.17157286  .00000049  00000+0  48235-4 0  9995
2 27432  98.8797 141.4765 0049500 328.7107  97.0911 14.14551124231991
MIDORI II (ADEOS-II)    
1 27597U 02056A   26088.12491785  .00000335  00000+0  14952-3 0  9998
2 27597  98.7801  46.7409 0000725  20.3214 339.7996 14.29299469213075
H-2A R/B                
1 27601U 02056E   26088.16841832  .00000375  00000+0  14548-3 0  9995
2 27601  98.3235  47.7963 0071373 103.2955 269.4488 14.33773833216901
CZ-4B R/B               
1 28059U 03049C   26087.98227328  .00000393  00000+0  10149-3 0  9996
2 28059  98.6892  83.6466 0048286 171.4866 188.7160 14.55037232189407
CZ-2C R/B               
1 28222U 04012C   26088.16628714  .00082097  00000+0  76759-3 0  9994
2 28222  97.7188 155.3345 0013319 231.8763 128.1297 15.66901026207321
SL-16 R/B               
1 28353U 04021B   26087.97371557  .00000201  00000+0  12940-3 0  9996
2 28353  71.0009 192.0242 0004983 346.2595  13.8391 14.14595002125563
CZ-4B R/B               
1 28415U 04035C   26088.08149843  .00009141  00000+0  31900-3 0  9993
2 28415  97.3470 122.0928 0030030 258.9545 100.8317 15.29395392182874
CZ-2C R/B               
1 28480U 04046B   26088.18881825  .00000180  00000+0  81219-4 0  9994
2 28480  98.1977   1.9579 0140601  97.1510 264.5681 14.26999128111287
ARIANE 5 R/B            
1 28499U 04049H   26088.03452076  .00000928  00000+0  10886-3 0  9994
2 28499  98.2657 257.2197 0082916 288.6587  70.5638 14.85300330148665
CZ-2D R/B               
1 28738U 05024B   26088.00442279  .00051256  00000+0  58859-3 0  9997
2 28738  97.3579 103.8832 0002337 337.3264  22.7890 15.61901771142797
